ALOUETTE 1 (S-27)       
1 00424U 62049A   02076.86875166  .00000308  00000-0  34922-3 0  7063
2 00424  80.4659  11.4060 0024004  32.3594 327.9012 13.68392257969433
IUE                     
1 10637U 78012A   02077.95254065 -.00000175  00000-0  10000-3 0  8264
2 10637  38.9231  51.5057 1538281 104.8253 272.6494  1.00058134 40964
IRAS                    
1 13777U 83004A   02079.53417255 -.00000034  00000-0  69938-5 0  3206
2 13777  99.0353 259.3132 0011238  52.4191 307.7988 13.99779704647418
EXOS D (AKEBONO)        
1 19822U 89016A   02076.93555688  .00047913  00000-0  20042-2 0  1705
2 19822  75.0855 248.9877 3213558 194.1201 154.3588  8.95495691340865
INTERCOSMOS 24          
1 20261U 89080A   02079.89613797  .00002802  00000-0  86945-3 0   790
2 20261  82.5962   4.9493 1221036 290.9332  56.5431 12.51579285568308
COBE                    
1 20322U 89089A   02079.53878479  .00000041  00000-0  53490-4 0  9206
2 20322  98.9047  85.1176 0007636 296.5661  63.4716 14.04060732631850
HST                     
1 20580U 90037B   02080.21597222  .00006949  00000-0  59849-3 0  9114
2 20580  28.4664  46.5518 0004132 334.6860  83.4468 14.95539223452496
ROSAT                   
1 20638U 90049A   02079.91205647  .00016998  00000-0  65468-3 0  5422
2 20638  53.0076 121.7001 0008749  75.8300 284.3662 15.26448550650434
CRRES                   
1 20712U 90065A   02076.21491845  .00000791  00000-0  77996-3 0  4400
2 20712  17.8304 107.0023 7152616 170.3378 219.8199  2.40409559 92959
SARA                    
1 21578U 91050E   02077.04691173  .00004518  00000-0  12675-2 0  7196
2 21578  98.1238 110.2891 0005262  44.4730 315.6871 14.46444670560793
SOLAR A (YOHKOH)        
1 21694U 91062A   02080.19107142  .00023145  00000-0  12053-2 0  9308
2 21694  31.3437  12.5281 0100034 191.4289 168.4446 15.10549190573087
UARS                    
1 21701U 91063B   02080.18973759  .00002579  00000-0  21593-3 0  5687
2 21701  56.9807 304.3074 0004950  91.5170 268.6432 15.01688245575468
SAMPEX                  
1 22012U 92038A   02079.85596040  .00018505  00000-0  96745-3 0  7052
2 22012  81.6456  39.5040 0087446  82.2341 278.9007 15.12417385529814
ORBVIEW 1 (MICROLAB)    
1 23547U 95017C   02077.55113960  .00004295  00000-0  10761-2 0  9817
2 23547  69.9840 321.8313 0008617  95.7556 264.4561 14.52015549367571
XTE                     
1 23757U 95074A   02080.07697937  .00011913  00000-0  63254-3 0  9816
2 23757  22.9822  49.4830 0010837 184.0636 175.9795 15.13007730341936
SAX                     
1 23857U 96027A   02077.36450513  .00050459  00000-0  16946-2 0   770
2 23857   3.9622  24.5810 0006769  52.1625 307.8905 15.28721932322894
FAST                    
1 24285U 96049A   02079.94817437  .00014773  00000-0  13605-2 0  8550
2 24285  82.9692 295.9386 2080172 112.6899 270.6721 11.08984066222146
SAC-B/HETE/PEGASUS      
1 24645U 96061A   02077.41196035  .00392977  63663-4  10172-2 0  1369
2 24645  37.9565  70.9819 0000544 193.4045 166.6738 15.94135771299719
SNOE                    
1 25233U 98012A   02077.09109009  .00032632  00000-0  10366-2 0  9320
2 25233  97.6387 358.6680 0018317 298.6639  61.2795 15.32415199223733
TRACE                   
1 25280U 98020A   02077.04233167  .00006723  00000-0  65287-3 0  7478
2 25280  97.8225 260.7709 0025775 111.0322 249.3643 14.92697029214781
SAFIR 2                 
1 25399U 98043F   02076.75757924 -.00000044  00000-0  00000-0 0  6203
2 25399  98.6574 155.2449 0002069  11.9738 348.1494 14.23427422191482
SWAS                    
1 25560U 98071A   02077.52687821  .00003819  00000-0  48600-3 0  6986
2 25560  69.9096 102.8317 0012651 222.9933 137.0226 14.82338508177071
ASTRID 2                
1 25568U 98072B   02076.96763521  .00000392  00000-0  41720-3 0  3676
2 25568  82.9486 128.8654 0023548 202.0687 157.9457 13.71634123163566
ORSTED                  
1 25635U 99008B   02080.22046467  .00001593  00000-0  41707-3 0  5657
2 25635  96.4745 141.5578 0146451 310.2521  48.5928 14.44042580161673
SUNSAT                  
1 25636U 99008C   02079.94575229  .00000852  00000-0  23305-3 0  5839
2 25636  96.4696 140.6383 0149488 314.6680  44.2410 14.42544355161562
WIRE                    
1 25646U 99011A   02079.94679104  .00018699  00000-0  88391-3 0  6993
2 25646  97.5067 264.4547 0023171 322.0664  37.8958 15.19204979167447
ABRIXAS                 
1 25721U 99022A   02077.25841893  .00011535  00000-0  74072-3 0  6451
2 25721  48.4425 343.4682 0026961  16.1012 344.0737 15.08475313158392
TERRIERS                
1 25735U 99026A   02077.06542040  .00007462  00000-0  39735-3 0  6148
2 25735  97.5733 317.9356 0008293 350.9017   9.2064 15.15486530156167
FUSE                    
1 25791U 99035A   02079.98445671  .00001660  00000-0  45511-3 0  5248
2 25791  24.9866 337.8089 0010640 212.3177 147.6681 14.40769396144307
CXO                     
1 25867U 99040B   02079.20833333  .00000000  00000-0  00000-0 0  3593
2 25867  43.1157 130.8412 6849017 312.6851 359.3327  0.37805388   982
CLEMENTINE              
1 25978U 99064B   02077.43410900  .00007128  00000-0  96281-3 0  6417
2 25978  98.1659  29.9955 0013062  63.3650 296.8897 14.79325205123200
XMM                     
1 25989U 99066A   02076.33333333  .00000000  00000-0  00000-0 0  4065
2 25989  34.6556 172.8983 7993854 107.3179 354.4418  0.50092247  1150
TERRA                   
1 25994U 99068A   02080.23582042 -.00000657  00000-0 -13590-3 0  6771
2 25994  98.1973 156.3613 0000721  64.2980 295.8256 14.57086109119977
ACRIMSAT                
1 26033U 99070B   02077.56333146  .00002000  00000-0  43479-3 0  5219
2 26033  98.2111 341.0192 0029176 193.1207 166.9234 14.58871121119185
IMAGE                   
1 26113U 00017A   02078.99131911  .00000222  00000-0  10000-3 0  2557
2 26113  89.5928 195.0284 7393573 238.3945  29.8584  1.68631505 12213
DELTA 2 R/B(2)          
1 26115U 00017C   02074.37397236  .00000199  00000-0  10000-3 0  2813
2 26115  89.8365 194.8678 7408283 239.6258  28.6852  1.68190506 12107
CLUSTER II/FM7          
1 26410U 00041A   02077.45833333  .00000000  00000-0  00000-0 0  2562
2 26410  89.0594 162.6905 6300537   8.9381   0.2375  0.42061979   276
CLUSTER II/FM6          
1 26411U 00041B   02077.45833333  .00000000  00000-0  00000-0 0  2686
2 26411  89.1157 162.7435 6272520  10.5508   0.5502  0.42082502   339
CLUSTER II/FM5          
1 26463U 00045A   02077.45833333  .00000000  00000-0  00000-0 0  2575
2 26463  89.0579 162.7232 6295254   9.0243   0.2008  0.42062395   826
CLUSTER II/FM8          
1 26464U 00045B   02077.45833333  .00000000  00000-0  00000-0 0  2431
2 26464  89.0997 162.7437 6296954   9.0242   0.2406  0.42062110   204
MEGSAT-1                
1 26546U 00057B   02076.94319159  .00005410  00000-0  71915-3 0  4699
2 26546  64.5604 343.9132 0050080 282.2989  77.2510 14.79831860 79418
HETE-2                  
1 26561U 00061A   02076.97964778  .00007973  00000-0  72752-3 0  2006
2 26561   1.9495 311.1018 0027127 181.8393 178.1548 14.89699875 78226
MUNIN                   
1 26621U 00075C   02077.12983966 -.00000785  00000-0 -69791-3 0  1303
2 26621  95.4122 279.9494 0719767   6.2014 354.7434 13.03344110 62699
ODIN                    
1 26702U 01007A   02077.23455758  .00006916  00000-0  74469-3 0  3708
2 26702  97.8200  85.8928 0003284 281.2405  78.8442 14.88773202 58057
HESSI                   
1 27370U 02004A   02077.23381842  .00010237  00000-0  99325-3 0   447
2 27370  38.0436 103.6977 0018950 225.7193 134.1980 14.92161063  6038
